SILVERSAT               
1 66909U 98067XV  26037.71391803  .00138156  00000+0  14992-2 0  9990
2 66909  51.6272 222.3150 0002550 223.1841 136.8954 15.62543187 10338
ISS OBJECT XW           
1 66910U 98067XW  26037.72755906  .00114383  00000+0  13119-2 0  9997
2 66910  51.6257 222.4006 0000958 240.3067 119.7831 15.61211268 10330
ISS OBJECT XX           
1 66911U 98067XX  26037.74954576  .00154731  00000+0  15986-2 0  9999
2 66911  51.6250 221.7970 0002423 254.7739 105.2988 15.63735398 10330
ISS OBJECT XY           
1 66912U 98067XY  26037.72255234  .00083010  00000+0  10639-2 0  9994
2 66912  51.6280 223.1240 0001319 158.7208 201.3840 15.58441538 10314
ISS OBJECT XZ           
1 67683U 98067XZ  26036.75905287  .00053171  00000+0  95375-3 0  9998
2 67683  51.6310 230.1884 0007776  59.1422 301.0331 15.49358087   364
ISS OBJECT YA           
1 67684U 98067YA  26037.92001410  .00052577  00000+0  93977-3 0  9999
2 67684  51.6314 224.4401 0007746  62.2205 297.9568 15.49464211   543
ISS OBJECT YB           
1 67685U 98067YB  26037.92012590  .00047751  00000+0  85682-3 0  9993
2 67685  51.6312 224.4405 0007864  62.7877 297.3912 15.49395303   549
ISS OBJECT YC           
1 67686U 98067YC  26037.79119683  .00040563  00000+0  73065-3 0  9996
2 67686  51.6307 225.0797 0011170  87.3207 272.9060 15.49324988   533
ISS OBJECT YD           
1 67687U 98067YD  26037.79107111  .00047022  00000+0  84186-3 0  9993
2 67687  51.6309 225.0790 0013087  82.8856 277.3620 15.49405872   531
ISS OBJECT YE           
1 67688U 98067YE  26037.79069587  .00076414  00000+0  13455-2 0  9995
2 67688  51.6308 225.0770 0013184  83.4359 276.8130 15.49665429   538
