CCSDS_OMM_VERS = 2.0
CREATION_DATE  = 
ORIGINATOR     = 

OBJECT_NAME    = SILVERSAT
OBJECT_ID      = 1998-067XV
CENTER_NAME    = EARTH
REF_FRAME      = TEME
TIME_SYSTEM    = UTC
MEAN_ELEMENT_THEORY = SGP/SGP4

EPOCH          = 2026-02-06T17:08:02.517792
MEAN_MOTION    = 15.62543187
ECCENTRICITY   = .00025504
INCLINATION    = 51.6272
RA_OF_ASC_NODE = 222.3150
ARG_OF_PERICENTER = 223.1841
MEAN_ANOMALY   = 136.8954

EPHEMERIS_TYPE = 0
CLASSIFICATION_TYPE = U
NORAD_CAT_ID   = 66909
ELEMENT_SET_NO = 999
REV_AT_EPOCH   = 1033
BSTAR          = .1499239E-2
MEAN_MOTION_DOT = .138156E-2
MEAN_MOTION_DDOT = 0

CCSDS_OMM_VERS = 2.0
CREATION_DATE  = 
ORIGINATOR     = 

OBJECT_NAME    = ISS OBJECT XW
OBJECT_ID      = 1998-067XW
CENTER_NAME    = EARTH
REF_FRAME      = TEME
TIME_SYSTEM    = UTC
MEAN_ELEMENT_THEORY = SGP/SGP4

EPOCH          = 2026-02-06T17:27:41.102784
MEAN_MOTION    = 15.61211268
ECCENTRICITY   = .00009584
INCLINATION    = 51.6257
RA_OF_ASC_NODE = 222.4006
ARG_OF_PERICENTER = 240.3067
MEAN_ANOMALY   = 119.7831

EPHEMERIS_TYPE = 0
CLASSIFICATION_TYPE = U
NORAD_CAT_ID   = 66910
ELEMENT_SET_NO = 999
REV_AT_EPOCH   = 1033
BSTAR          = .13119254E-2
MEAN_MOTION_DOT = .114383E-2
MEAN_MOTION_DDOT = 0

CCSDS_OMM_VERS = 2.0
CREATION_DATE  = 
ORIGINATOR     = 

OBJECT_NAME    = ISS OBJECT XX
OBJECT_ID      = 1998-067XX
CENTER_NAME    = EARTH
REF_FRAME      = TEME
TIME_SYSTEM    = UTC
MEAN_ELEMENT_THEORY = SGP/SGP4

EPOCH          = 2026-02-06T17:59:20.753664
MEAN_MOTION    = 15.63735398
ECCENTRICITY   = .0002423
INCLINATION    = 51.6250
RA_OF_ASC_NODE = 221.7970
ARG_OF_PERICENTER = 254.7739
MEAN_ANOMALY   = 105.2988

EPHEMERIS_TYPE = 0
CLASSIFICATION_TYPE = U
NORAD_CAT_ID   = 66911
ELEMENT_SET_NO = 999
REV_AT_EPOCH   = 1033
BSTAR          = .15986426E-2
MEAN_MOTION_DOT = .154731E-2
MEAN_MOTION_DDOT = 0

CCSDS_OMM_VERS = 2.0
CREATION_DATE  = 
ORIGINATOR     = 

OBJECT_NAME    = ISS OBJECT XY
OBJECT_ID      = 1998-067XY
CENTER_NAME    = EARTH
REF_FRAME      = TEME
TIME_SYSTEM    = UTC
MEAN_ELEMENT_THEORY = SGP/SGP4

EPOCH          = 2026-02-06T17:20:28.522176
MEAN_MOTION    = 15.58441538
ECCENTRICITY   = .0001319
INCLINATION    = 51.6280
RA_OF_ASC_NODE = 223.1240
ARG_OF_PERICENTER = 158.7208
MEAN_ANOMALY   = 201.3840

EPHEMERIS_TYPE = 0
CLASSIFICATION_TYPE = U
NORAD_CAT_ID   = 66912
ELEMENT_SET_NO = 999
REV_AT_EPOCH   = 1031
BSTAR          = .10639293E-2
MEAN_MOTION_DOT = .8301E-3
MEAN_MOTION_DDOT = 0

CCSDS_OMM_VERS = 2.0
CREATION_DATE  = 
ORIGINATOR     = 

OBJECT_NAME    = ISS OBJECT XZ
OBJECT_ID      = 1998-067XZ
CENTER_NAME    = EARTH
REF_FRAME      = TEME
TIME_SYSTEM    = UTC
MEAN_ELEMENT_THEORY = SGP/SGP4

EPOCH          = 2026-02-05T18:13:02.167968
MEAN_MOTION    = 15.49358087
ECCENTRICITY   = .00077762
INCLINATION    = 51.6310
RA_OF_ASC_NODE = 230.1884
ARG_OF_PERICENTER = 59.1422
MEAN_ANOMALY   = 301.0331

EPHEMERIS_TYPE = 0
CLASSIFICATION_TYPE = U
NORAD_CAT_ID   = 67683
ELEMENT_SET_NO = 999
REV_AT_EPOCH   = 36
BSTAR          = .9537546E-3
MEAN_MOTION_DOT = .53171E-3
MEAN_MOTION_DDOT = 0

CCSDS_OMM_VERS = 2.0
CREATION_DATE  = 
ORIGINATOR     = 

OBJECT_NAME    = ISS OBJECT YA
OBJECT_ID      = 1998-067YA
CENTER_NAME    = EARTH
REF_FRAME      = TEME
TIME_SYSTEM    = UTC
MEAN_ELEMENT_THEORY = SGP/SGP4

EPOCH          = 2026-02-06T22:04:49.218240
MEAN_MOTION    = 15.49464211
ECCENTRICITY   = .00077462
INCLINATION    = 51.6314
RA_OF_ASC_NODE = 224.4401
ARG_OF_PERICENTER = 62.2205
MEAN_ANOMALY   = 297.9568

EPHEMERIS_TYPE = 0
CLASSIFICATION_TYPE = U
NORAD_CAT_ID   = 67684
ELEMENT_SET_NO = 999
REV_AT_EPOCH   = 54
BSTAR          = .93976535E-3
MEAN_MOTION_DOT = .52577E-3
MEAN_MOTION_DDOT = 0

CCSDS_OMM_VERS = 2.0
CREATION_DATE  = 
ORIGINATOR     = 

OBJECT_NAME    = ISS OBJECT YB
OBJECT_ID      = 1998-067YB
CENTER_NAME    = EARTH
REF_FRAME      = TEME
TIME_SYSTEM    = UTC
MEAN_ELEMENT_THEORY = SGP/SGP4

EPOCH          = 2026-02-06T22:04:58.877760
MEAN_MOTION    = 15.49395303
ECCENTRICITY   = .00078643
INCLINATION    = 51.6312
RA_OF_ASC_NODE = 224.4405
ARG_OF_PERICENTER = 62.7877
MEAN_ANOMALY   = 297.3912

EPHEMERIS_TYPE = 0
CLASSIFICATION_TYPE = U
NORAD_CAT_ID   = 67685
ELEMENT_SET_NO = 999
REV_AT_EPOCH   = 54
BSTAR          = .85681713E-3
MEAN_MOTION_DOT = .47751E-3
MEAN_MOTION_DDOT = 0

CCSDS_OMM_VERS = 2.0
CREATION_DATE  = 
ORIGINATOR     = 

OBJECT_NAME    = ISS OBJECT YC
OBJECT_ID      = 1998-067YC
CENTER_NAME    = EARTH
REF_FRAME      = TEME
TIME_SYSTEM    = UTC
MEAN_ELEMENT_THEORY = SGP/SGP4

EPOCH          = 2026-02-06T18:59:19.406112
MEAN_MOTION    = 15.49324988
ECCENTRICITY   = .00111704
INCLINATION    = 51.6307
RA_OF_ASC_NODE = 225.0797
ARG_OF_PERICENTER = 87.3207
MEAN_ANOMALY   = 272.9060

EPHEMERIS_TYPE = 0
CLASSIFICATION_TYPE = U
NORAD_CAT_ID   = 67686
ELEMENT_SET_NO = 999
REV_AT_EPOCH   = 53
BSTAR          = .73064938E-3
MEAN_MOTION_DOT = .40563E-3
MEAN_MOTION_DDOT = 0

CCSDS_OMM_VERS = 2.0
CREATION_DATE  = 
ORIGINATOR     = 

OBJECT_NAME    = ISS OBJECT YD
OBJECT_ID      = 1998-067YD
CENTER_NAME    = EARTH
REF_FRAME      = TEME
TIME_SYSTEM    = UTC
MEAN_ELEMENT_THEORY = SGP/SGP4

EPOCH          = 2026-02-06T18:59:08.543904
MEAN_MOTION    = 15.49405872
ECCENTRICITY   = .00130874
INCLINATION    = 51.6309
RA_OF_ASC_NODE = 225.0790
ARG_OF_PERICENTER = 82.8856
MEAN_ANOMALY   = 277.3620

EPHEMERIS_TYPE = 0
CLASSIFICATION_TYPE = U
NORAD_CAT_ID   = 67687
ELEMENT_SET_NO = 999
REV_AT_EPOCH   = 53
BSTAR          = .84185825E-3
MEAN_MOTION_DOT = .47022E-3
MEAN_MOTION_DDOT = 0

CCSDS_OMM_VERS = 2.0
CREATION_DATE  = 
ORIGINATOR     = 

OBJECT_NAME    = ISS OBJECT YE
OBJECT_ID      = 1998-067YE
CENTER_NAME    = EARTH
REF_FRAME      = TEME
TIME_SYSTEM    = UTC
MEAN_ELEMENT_THEORY = SGP/SGP4

EPOCH          = 2026-02-06T18:58:36.123168
MEAN_MOTION    = 15.49665429
ECCENTRICITY   = .00131844
INCLINATION    = 51.6308
RA_OF_ASC_NODE = 225.0770
ARG_OF_PERICENTER = 83.4359
MEAN_ANOMALY   = 276.8130

EPHEMERIS_TYPE = 0
CLASSIFICATION_TYPE = U
NORAD_CAT_ID   = 67688
ELEMENT_SET_NO = 999
REV_AT_EPOCH   = 53
BSTAR          = .1345545E-2
MEAN_MOTION_DOT = .76414E-3
MEAN_MOTION_DDOT = 0

